NORAD_CAT_ID,OBJECT_NAME,OBJECT_TYPE,EPOCH,MEAN_MOTION,ECCENTRICITY,INCLINATION,RA_OF_ASC_NODE,ARG_OF_PERICENTER,MEAN_ANOMALY,BSTAR,MEAN_MOTION_DOT,MEAN_MOTION_DDOT,TLE_LINE0,TLE_LINE1,TLE_LINE2,SEMIMAJOR_AXIS,PERIOD,APOGEE,PERIGEE,DECAYED
56461.0,STARLINK-6037,PAYLOAD,2023-12-07 13:31:58,14.98337913,0.0002752,70.0012,59.6986,255.6219,104.4635,-0.00017683,-2.203e-05,0.0,0 STARLINK-6037,1 56461U 23064P   23341.56386722 -.00002203  00000-0 -17683-3 0  9996,2 56461  70.0012  59.6986 0002752 255.6219 104.4635 14.98337913 31952,6950.168,96.106,573.946,570.121,0.0
56461.0,STARLINK-6037,PAYLOAD,2023-12-08 11:57:50,14.98329933,0.000292,70.0006,57.3405,263.7786,96.3041,2.5978e-05,2.17e-06,0.0,0 STARLINK-6037,1 56461U 23064P   23342.49850351  .00000217  00000-0  25978-4 0  9991,2 56461  70.0006  57.3405 0002920 263.7786  96.3041 14.98329933 32451,6950.193,96.107,574.088,570.029,0.0
56461.0,STARLINK-6037,PAYLOAD,2023-12-08 15:10:06,14.98330548,0.0002846,70.0006,57.0032,266.367,93.7164,3.9657e-05,3.8e-06,0.0,0 STARLINK-6037,1 56461U 23064P   23342.63202299  .00000380  00000-0  39657-4 0  9999,2 56461  70.0006  57.0032 0002846 266.3670  93.7164 14.98330548 32116,6950.191,96.107,574.034,570.078,0.0
56461.0,STARLINK-6037,PAYLOAD,2023-12-09 11:59:51,14.98329707,0.0002994,70.0004,54.8148,270.2747,89.8069,1.047e-05,3.2e-07,0.0,0 STARLINK-6037,1 56461U 23064P   23343.49990308  .00000032  00000-0  10470-4 0  9995,2 56461  70.0004  54.8148 0002994 270.2747  89.8069 14.98329707 32609,6950.194,96.107,574.14,569.978,0.0
56461.0,STARLINK-6037,PAYLOAD,2023-12-10 12:01:52,14.98334198,0.0002981,70.0001,52.2899,270.1226,89.9591,2.4904e-05,2.04e-06,0.0,0 STARLINK-6037,1 56461U 23064P   23344.50129934  .00000204  00000-0  24904-4 0  9995,2 56461  70.0001  52.2899 0002981 270.1226  89.9591 14.98334198 32755,6950.18,96.107,574.117,569.973,0.0
56461.0,STARLINK-6037,PAYLOAD,2023-12-10 13:38:00,14.98336083,0.0002957,70.0004,52.1219,270.9597,89.1223,4.4967e-05,4.44e-06,0.0,0 STARLINK-6037,1 56461U 23064P   23344.56805735  .00000444  00000-0  44967-4 0  9998,2 56461  70.0004  52.1219 0002957 270.9597  89.1223 14.98336083 32406,6950.174,96.107,574.094,569.984,0.0
56461.0,STARLINK-6037,PAYLOAD,2023-12-10 15:14:08,14.9833741,0.0002939,70.0005,51.9537,271.1558,88.9265,5.9431e-05,6.16e-06,0.0,0 STARLINK-6037,1 56461U 23064P   23344.63481592  .00000616  00000-0  59431-4 0  9990,2 56461  70.0005  51.9537 0002939 271.1558  88.9265 14.98337410 32416,6950.17,96.107,574.078,569.992,0.0
56461.0,STARLINK-6037,PAYLOAD,2023-12-11 12:03:53,14.98335748,0.0002698,70.0008,49.7682,260.0069,100.0785,-0.0001285,-1.626e-05,0.0,0 STARLINK-6037,1 56461U 23064P   23345.50269963 -.00001626  00000-0 -12850-3 0  9990,2 56461  70.0008  49.7682 0002698 260.0069 100.0785 14.98335748 32900,6950.175,96.107,573.915,570.165,0.0
56461.0,STARLINK-6037,PAYLOAD,2023-12-11 13:40:01,14.98322579,0.0002641,70.0007,49.5998,258.1159,101.9704,4.9241e-05,4.95e-06,0.0,0 STARLINK-6037,1 56461U 23064P   23345.56946389  .00000495  00000-0  49241-4 0  9996,2 56461  70.0007  49.5998 0002641 258.1159 101.9704 14.98322579 32553,6950.216,96.107,573.916,570.245,0.0
56461.0,STARLINK-6037,PAYLOAD,2023-12-12 12:05:54,14.98337588,0.0002646,70.0004,47.2426,258.0222,102.064,-0.00012456,-1.579e-05,0.0,0 STARLINK-6037,1 56461U 23064P   23346.50409809 -.00001579  00000-0 -12456-3 0  9995,2 56461  70.0004  47.2426 0002646 258.0222 102.0640 14.98337588 33059,6950.169,96.107,573.873,570.195,0.0
56461.0,STARLINK-6037,PAYLOAD,2023-12-12 13:42:02,14.98329562,0.0002773,70.0002,47.074,260.5468,99.5377,-5.6852e-07,-1e-06,0.0,0 STARLINK-6037,1 56461U 23064P   23346.57086025 -.00000100  00000-0 -56852-6 0  9993,2 56461  70.0002  47.0740 0002773 260.5468  99.5377 14.98329562 32706,6950.194,96.107,573.987,570.132,0.0
56461.0,STARLINK-6037,PAYLOAD,2023-12-13 12:07:55,14.98328988,0.0002971,69.9998,44.7165,264.924,95.158,2.0882e-05,1.56e-06,0.0,0 STARLINK-6037,1 56461U 23064P   23347.50549926  .00000156  00000-0  20882-4 0  9992,2 56461  69.9998  44.7165 0002971 264.9240  95.1580 14.98328988 33203,6950.196,96.107,574.126,569.996,0.0
56461.0,STARLINK-6037,PAYLOAD,2023-12-13 13:44:03,14.98329241,0.0002972,69.9998,44.5481,265.0447,95.0373,2.2886e-05,1.8e-06,0.0,0 STARLINK-6037,1 56461U 23064P   23347.57225907  .00000180  00000-0  22886-4 0  9992,2 56461  69.9998  44.5481 0002972 265.0447  95.0373 14.98329241 32856,6950.195,96.107,574.126,569.995,0.0
56461.0,STARLINK-6037,PAYLOAD,2023-12-14 12:09:56,14.98330508,0.0002851,70.0,42.1918,261.3123,98.7713,1.9313e-05,1.37e-06,0.0,0 STARLINK-6037,1 56461U 23064P   23348.50689848  .00000137  00000-0  19313-4 0  9997,2 56461  70.0000  42.1918 0002851 261.3123  98.7713 14.98330508 33350,6950.191,96.107,574.038,570.075,0.0
56461.0,STARLINK-6037,PAYLOAD,2023-12-14 13:46:04,14.98330588,0.0002859,70.0,42.0234,262.108,97.9755,1.9532e-05,1.4e-06,0.0,0 STARLINK-6037,1 56461U 23064P   23348.57365843  .00000140  00000-0  19532-4 0  9997,2 56461  70.0000  42.0234 0002859 262.1080  97.9755 14.98330588 33006,6950.191,96.107,574.043,570.069,0.0
56461.0,STARLINK-6037,PAYLOAD,2023-12-15 12:11:56,14.98329596,0.0002843,70.0,39.6669,262.7273,97.3563,7.0312e-06,-9e-08,0.0,0 STARLINK-6037,1 56461U 23064P   23349.50829853 -.00000009  00000-0  70312-5 0  9996,2 56461  70.0000  39.6669 0002843 262.7273  97.3563 14.98329596 33506,6950.194,96.107,574.035,570.083,0.0
56461.0,STARLINK-6037,PAYLOAD,2023-12-15 13:48:05,14.98329352,0.0002855,69.9999,39.4983,264.3221,95.7613,4.4604e-06,-4e-07,0.0,0 STARLINK-6037,1 56461U 23064P   23349.57505883 -.00000040  00000-0  44604-5 0  9997,2 56461  69.9999  39.4983 0002855 264.3221  95.7613 14.98329352 33150,6950.195,96.107,574.044,570.076,0.0
56461.0,STARLINK-6037,PAYLOAD,2023-12-16 12:13:58,14.98329557,0.0002827,69.9999,37.1417,263.9031,96.1806,-6.2831e-06,-1.68e-06,0.0,0 STARLINK-6037,1 56461U 23064P   23350.50969929 -.00000168  00000-0 -62831-5 0  9991,2 56461  69.9999  37.1417 0002827 263.9031  96.1806 14.98329557 33651,6950.194,96.107,574.024,570.094,0.0
56461.0,STARLINK-6037,PAYLOAD,2023-12-16 13:50:06,14.98329407,0.0002833,69.9999,36.9732,265.2562,94.8274,-7.8585e-06,-1.87e-06,0.0,0 STARLINK-6037,1 56461U 23064P   23350.57645951 -.00000187  00000-0 -78585-5 0  9998,2 56461  69.9999  36.9732 0002833 265.2562  94.8274 14.98329407 33309,6950.195,96.107,574.029,570.091,0.0
56461.0,STARLINK-6037,PAYLOAD,2023-12-17 12:15:58,14.98329525,0.0002783,70.0,34.6165,263.7755,96.3087,1.0802e-05,3.6e-07,0.0,0 STARLINK-6037,1 56461U 23064P   23351.51109868  .00000036  00000-0  10802-4 0  9993,2 56461  70.0000  34.6165 0002783 263.7755  96.3087 14.98329525 33806,6950.194,96.107,573.994,570.125,0.0
56461.0,STARLINK-6037,PAYLOAD,2023-12-18 12:17:59,14.98336828,0.000282,70.0,32.0915,261.4495,98.6344,8.1522e-05,8.8e-06,0.0,0 STARLINK-6037,1 56461U 23064P   23352.51248960  .00000880  00000-0  81522-4 0  9995,2 56461  70.0000  32.0915 0002820 261.4495  98.6344 14.98336828 33950,6950.172,96.107,573.997,570.077,0.0
56461.0,STARLINK-6037,PAYLOAD,2023-12-19 04:19:20,14.98326052,0.0002622,70.0009,30.4093,248.6613,111.4267,-3.1863e-05,-4.73e-06,0.0,0 STARLINK-6037,1 56461U 23064P   23353.18009851 -.00000473  00000-0 -31863-4 0  9996,2 56461  70.0009  30.4093 0002622 248.6613 111.4267 14.98326052 34055,6950.205,96.107,573.892,570.248,0.0
56461.0,STARLINK-6037,PAYLOAD,2023-12-19 12:20:01,14.98322203,0.0002706,70.0005,29.567,255.7457,104.3402,-8.0126e-05,-1.049e-05,0.0,0 STARLINK-6037,1 56461U 23064P   23353.51390338 -.00001049  00000-0 -80126-4 0  9992,2 56461  70.0005  29.5670 0002706 255.7457 104.3402 14.98322203 33740,6950.217,96.107,573.963,570.201,0.0
56461.0,STARLINK-6037,PAYLOAD,2023-12-20 04:21:21,14.98328325,0.0003007,69.9996,27.8824,264.5098,95.5718,-9.6774e-05,-1.247e-05,0.0,0 STARLINK-6037,1 56461U 23064P   23354.18150090 -.00001247  00000-0 -96774-4 0  9991,2 56461  69.9996  27.8824 0003007 264.5098  95.5718 14.98328325 34206,6950.198,96.107,574.153,569.973,0.0
56461.0,STARLINK-6037,PAYLOAD,2023-12-20 12:22:01,14.98332132,0.0002885,69.9999,27.0414,261.3876,98.6956,-4.5952e-05,-6.41e-06,0.0,0 STARLINK-6037,1 56461U 23064P   23354.51529711 -.00000641  00000-0 -45952-4 0  9997,2 56461  69.9999  27.0414 0002885 261.3876  98.6956 14.98332132 33891,6950.186,96.107,574.056,570.046,0.0
56461.0,STARLINK-6037,PAYLOAD,2023-12-21 04:23:21,14.9833122,0.0002985,69.9997,25.3577,264.6411,95.4408,0.00010297,1.136e-05,0.0,0 STARLINK-6037,1 56461U 23064P   23355.18289291  .00001136  00000-0  10297-3 0  9998,2 56461  69.9997  25.3577 0002985 264.6411  95.4408 14.98331220 34358,6950.189,96.107,574.129,569.979,0.0
56461.0,STARLINK-6037,PAYLOAD,2023-12-21 10:47:57,14.98281084,0.0002739,70.0012,24.6863,242.7293,117.3587,-0.00041822,-5.073e-05,0.0,0 STARLINK-6037,1 56461U 23064P   23355.44997472 -.00005073  00000-0 -41822-3 0  9998,2 56461  70.0012  24.6863 0002739 242.7293 117.3587 14.98281084 34399,6950.344,96.11,574.113,570.305,0.0
56461.0,STARLINK-6037,PAYLOAD,2023-12-21 12:24:05,14.98284996,0.0002729,70.0008,24.5176,262.6791,97.4058,-0.00039283,-4.771e-05,0.0,0 STARLINK-6037,1 56461U 23064P   23355.51673238 -.00004771  00000-0 -39283-3 0  9999,2 56461  70.0008  24.5176 0002729 262.6791  97.4058 14.98284996 34041,6950.332,96.11,574.094,570.3,0.0
56461.0,STARLINK-6037,PAYLOAD,2023-12-22 04:25:23,14.98326251,0.0002729,70.0006,22.8346,263.0294,97.0555,-6.1793e-06,-1.67e-06,0.0,0 STARLINK-6037,1 56461U 23064P   23356.18429936 -.00000167  00000-0 -61793-5 0  9995,2 56461  70.0006  22.8346 0002729 263.0294  97.0555 14.98326251 34502,6950.204,96.107,573.966,570.173,0.0
56461.0,STARLINK-6037,PAYLOAD,2023-12-22 10:49:55,14.9832487,0.0002532,70.0007,22.1606,249.0232,111.0657,-1.155e-05,-2.31e-06,0.0,0 STARLINK-6037,1 56461U 23064P   23356.45134019 -.00000231  00000-0 -11550-4 0  9997,2 56461  70.0007  22.1606 0002532 249.0232 111.0657 14.98324870 34182,6950.209,96.107,573.834,570.314,0.0
